[
  {
    "COMMENT": "GENERATED VIA SPACETRACK.ORG API",
    "ORIGINATOR": "18 SPCS",
    "NORAD_CAT_ID": "48621",
    "OBJECT_NAME": "HAIYANG 2D",
    "OBJECT_TYPE": "PAYLOAD",
    "CLASSIFICATION_TYPE": "U",
    "INTLDES": "21043A",
    "EPOCH": "2023-04-14 12:56:46",
    "EPOCH_MICROSECONDS": "593024",
    "MEAN_MOTION": "13.83373408",
    "ECCENTRICITY": "0.0009447",
    "INCLINATION": "65.9992",
    "RA_OF_ASC_NODE": "311.8286",
    "ARG_OF_PERICENTER": "255.4076",
    "MEAN_ANOMALY": "104.5945",
    "EPHEMERIS_TYPE": "0",
    "ELEMENT_SET_NO": "999",
    "REV_AT_EPOCH": "9618",
    "BSTAR": "0.000078389",
    "MEAN_MOTION_DOT": "0.00000005",
    "MEAN_MOTION_DDOT": "0",
    "FILE": "3887333",
    "TLE_LINE0": "0 HAIYANG 2D",
    "TLE_LINE1": "1 48621U 21043A   23104.53942816  .00000005  00000-0  78389-4 0  9993",
    "TLE_LINE2": "2 48621  65.9992 311.8286 0009447 255.4076 104.5945 13.83373408 96187",
    "OBJECT_ID": "2021-043A",
    "OBJECT_NUMBER": "48621",
    "SEMIMAJOR_AXIS": "7330.083",
    "PERIOD": "104.093",
    "APOGEE": "958.873",
    "PERIGEE": "945.023",
    "DECAYED": "0"
  },
  {
    "COMMENT": "GENERATED VIA SPACETRACK.ORG API",
    "ORIGINATOR": "18 SPCS",
    "NORAD_CAT_ID": "48621",
    "OBJECT_NAME": "HAIYANG 2D",
    "OBJECT_TYPE": "PAYLOAD",
    "CLASSIFICATION_TYPE": "U",
    "INTLDES": "21043A",
    "EPOCH": "2023-04-14 21:37:17",
    "EPOCH_MICROSECONDS": "950080",
    "MEAN_MOTION": "13.83373401",
    "ECCENTRICITY": "0.0009441",
    "INCLINATION": "65.9992",
    "RA_OF_ASC_NODE": "310.9289",
    "ARG_OF_PERICENTER": "255.2703",
    "MEAN_ANOMALY": "104.7307",
    "EPHEMERIS_TYPE": "0",
    "ELEMENT_SET_NO": "999",
    "REV_AT_EPOCH": "9623",
    "BSTAR": "0.000076434",
    "MEAN_MOTION_DOT": "0.00000003",
    "MEAN_MOTION_DDOT": "0",
    "FILE": "3887559",
    "TLE_LINE0": "0 HAIYANG 2D",
    "TLE_LINE1": "1 48621U 21043A   23104.90090220  .00000003  00000-0  76434-4 0  9994",
    "TLE_LINE2": "2 48621  65.9992 310.9289 0009441 255.2703 104.7307 13.83373401 96232",
    "OBJECT_ID": "2021-043A",
    "OBJECT_NUMBER": "48621",
    "SEMIMAJOR_AXIS": "7330.083",
    "PERIOD": "104.093",
    "APOGEE": "958.868",
    "PERIGEE": "945.028",
    "DECAYED": "0"
  },
  {
    "COMMENT": "GENERATED VIA SPACETRACK.ORG API",
    "ORIGINATOR": "18 SPCS",
    "NORAD_CAT_ID": "48621",
    "OBJECT_NAME": "HAIYANG 2D",
    "OBJECT_TYPE": "PAYLOAD",
    "CLASSIFICATION_TYPE": "U",
    "INTLDES": "21043A",
    "EPOCH": "2023-04-15 06:17:49",
    "EPOCH_MICROSECONDS": "327872",
    "MEAN_MOTION": "13.83373433",
    "ECCENTRICITY": "0.0009431",
    "INCLINATION": "65.999",
    "RA_OF_ASC_NODE": "310.0286",
    "ARG_OF_PERICENTER": "255.5333",
    "MEAN_ANOMALY": "104.4689",
    "EPHEMERIS_TYPE": "0",
    "ELEMENT_SET_NO": "999",
    "REV_AT_EPOCH": "9628",
    "BSTAR": "0.000072236",
    "MEAN_MOTION_DOT": "-0.00000002",
    "MEAN_MOTION_DDOT": "0",
    "FILE": "3887777",
    "TLE_LINE0": "0 HAIYANG 2D",
    "TLE_LINE1": "1 48621U 21043A   23105.26237648 -.00000002  00000-0  72236-4 0  9997",
    "TLE_LINE2": "2 48621  65.9990 310.0286 0009431 255.5333 104.4689 13.83373433 96289",
    "OBJECT_ID": "2021-043A",
    "OBJECT_NUMBER": "48621",
    "SEMIMAJOR_AXIS": "7330.083",
    "PERIOD": "104.093",
    "APOGEE": "958.861",
    "PERIGEE": "945.035",
    "DECAYED": "0"
  },
  {
    "COMMENT": "GENERATED VIA SPACETRACK.ORG API",
    "ORIGINATOR": "18 SPCS",
    "NORAD_CAT_ID": "48621",
    "OBJECT_NAME": "HAIYANG 2D",
    "OBJECT_TYPE": "PAYLOAD",
    "CLASSIFICATION_TYPE": "U",
    "INTLDES": "21043A",
    "EPOCH": "2023-04-15 13:14:14",
    "EPOCH_MICROSECONDS": "408160",
    "MEAN_MOTION": "13.83373451",
    "ECCENTRICITY": "0.0009419",
    "INCLINATION": "65.9989",
    "RA_OF_ASC_NODE": "309.3087",
    "ARG_OF_PERICENTER": "255.4952",
    "MEAN_ANOMALY": "104.5066",
    "EPHEMERIS_TYPE": "0",
    "ELEMENT_SET_NO": "999",
    "REV_AT_EPOCH": "9632",
    "BSTAR": "0.000069291",
    "MEAN_MOTION_DOT": "-0.00000005",
    "MEAN_MOTION_DDOT": "0",
    "FILE": "3887937",
    "TLE_LINE0": "0 HAIYANG 2D",
    "TLE_LINE1": "1 48621U 21043A   23105.55155565 -.00000005  00000-0  69291-4 0  9996",
    "TLE_LINE2": "2 48621  65.9989 309.3087 0009419 255.4952 104.5066 13.83373451 96324",
    "OBJECT_ID": "2021-043A",
    "OBJECT_NUMBER": "48621",
    "SEMIMAJOR_AXIS": "7330.083",
    "PERIOD": "104.093",
    "APOGEE": "958.852",
    "PERIGEE": "945.044",
    "DECAYED": "0"
  },
  {
    "COMMENT": "GENERATED VIA SPACETRACK.ORG API",
    "ORIGINATOR": "18 SPCS",
    "NORAD_CAT_ID": "48621",
    "OBJECT_NAME": "HAIYANG 2D",
    "OBJECT_TYPE": "PAYLOAD",
    "CLASSIFICATION_TYPE": "U",
    "INTLDES": "21043A",
    "EPOCH": "2023-04-15 13:14:14",
    "EPOCH_MICROSECONDS": "408160",
    "MEAN_MOTION": "13.83373451",
    "ECCENTRICITY": "0.0009419",
    "INCLINATION": "65.9989",
    "RA_OF_ASC_NODE": "309.3087",
    "ARG_OF_PERICENTER": "255.4952",
    "MEAN_ANOMALY": "104.5066",
    "EPHEMERIS_TYPE": "0",
    "ELEMENT_SET_NO": "999",
    "REV_AT_EPOCH": "9632",
    "BSTAR": "0.000069291",
    "MEAN_MOTION_DOT": "-0.00000005",
    "MEAN_MOTION_DDOT": "0",
    "FILE": "3887974",
    "TLE_LINE0": "0 HAIYANG 2D",
    "TLE_LINE1": "1 48621U 21043A   23105.55155565 -.00000005  00000-0  69291-4 0  9996",
    "TLE_LINE2": "2 48621  65.9989 309.3087 0009419 255.4952 104.5066 13.83373451 96324",
    "OBJECT_ID": "2021-043A",
    "OBJECT_NUMBER": "48621",
    "SEMIMAJOR_AXIS": "7330.083",
    "PERIOD": "104.093",
    "APOGEE": "958.852",
    "PERIGEE": "945.044",
    "DECAYED": "0"
  },
  {
    "COMMENT": "GENERATED VIA SPACETRACK.ORG API",
    "ORIGINATOR": "18 SPCS",
    "NORAD_CAT_ID": "48621",
    "OBJECT_NAME": "HAIYANG 2D",
    "OBJECT_TYPE": "PAYLOAD",
    "CLASSIFICATION_TYPE": "U",
    "INTLDES": "21043A",
    "EPOCH": "2023-04-15 18:26:33",
    "EPOCH_MICROSECONDS": "231552",
    "MEAN_MOTION": "13.83373347",
    "ECCENTRICITY": "0.0009411",
    "INCLINATION": "65.9991",
    "RA_OF_ASC_NODE": "308.7688",
    "ARG_OF_PERICENTER": "255.2066",
    "MEAN_ANOMALY": "104.7943",
    "EPHEMERIS_TYPE": "0",
    "ELEMENT_SET_NO": "999",
    "REV_AT_EPOCH": "9635",
    "BSTAR": "0.000061506",
    "MEAN_MOTION_DOT": "-0.00000014",
    "MEAN_MOTION_DDOT": "0",
    "FILE": "3888139",
    "TLE_LINE0": "0 HAIYANG 2D",
    "TLE_LINE1": "1 48621U 21043A   23105.76844018 -.00000014  00000-0  61506-4 0  9998",
    "TLE_LINE2": "2 48621  65.9991 308.7688 0009411 255.2066 104.7943 13.83373347 96356",
    "OBJECT_ID": "2021-043A",
    "OBJECT_NUMBER": "48621",
    "SEMIMAJOR_AXIS": "7330.083",
    "PERIOD": "104.093",
    "APOGEE": "958.847",
    "PERIGEE": "945.050",
    "DECAYED": "0"
  },
  {
    "COMMENT": "GENERATED VIA SPACETRACK.ORG API",
    "ORIGINATOR": "18 SPCS",
    "NORAD_CAT_ID": "48621",
    "OBJECT_NAME": "HAIYANG 2D",
    "OBJECT_TYPE": "PAYLOAD",
    "CLASSIFICATION_TYPE": "U",
    "INTLDES": "21043A",
    "EPOCH": "2023-04-16 03:07:04",
    "EPOCH_MICROSECONDS": "606752",
    "MEAN_MOTION": "13.8337348",
    "ECCENTRICITY": "0.0009405",
    "INCLINATION": "65.999",
    "RA_OF_ASC_NODE": "307.8685",
    "ARG_OF_PERICENTER": "255.5693",
    "MEAN_ANOMALY": "104.4333",
    "EPHEMERIS_TYPE": "0",
    "ELEMENT_SET_NO": "999",
    "REV_AT_EPOCH": "9640",
    "BSTAR": "0.000065711",
    "MEAN_MOTION_DOT": "-0.00000009",
    "MEAN_MOTION_DDOT": "0",
    "FILE": "3888355",
    "TLE_LINE0": "0 HAIYANG 2D",
    "TLE_LINE1": "1 48621U 21043A   23106.12991443 -.00000009  00000-0  65711-4 0  9990",
    "TLE_LINE2": "2 48621  65.9990 307.8685 0009405 255.5693 104.4333 13.83373480 96408",
    "OBJECT_ID": "2021-043A",
    "OBJECT_NUMBER": "48621",
    "SEMIMAJOR_AXIS": "7330.083",
    "PERIOD": "104.093",
    "APOGEE": "958.842",
    "PERIGEE": "945.054",
    "DECAYED": "0"
  },
  {
    "COMMENT": "GENERATED VIA SPACETRACK.ORG API",
    "ORIGINATOR": "18 SPCS",
    "NORAD_CAT_ID": "48621",
    "OBJECT_NAME": "HAIYANG 2D",
    "OBJECT_TYPE": "PAYLOAD",
    "CLASSIFICATION_TYPE": "U",
    "INTLDES": "21043A",
    "EPOCH": "2023-04-16 13:31:42",
    "EPOCH_MICROSECONDS": "226752",
    "MEAN_MOTION": "13.83373536",
    "ECCENTRICITY": "0.0009392",
    "INCLINATION": "65.999",
    "RA_OF_ASC_NODE": "306.7889",
    "ARG_OF_PERICENTER": "255.2639",
    "MEAN_ANOMALY": "104.7387",
    "EPHEMERIS_TYPE": "0",
    "ELEMENT_SET_NO": "999",
    "REV_AT_EPOCH": "9646",
    "BSTAR": "0.000064488",
    "MEAN_MOTION_DOT": "-0.0000001",
    "MEAN_MOTION_DDOT": "0",
    "FILE": "3888586",
    "TLE_LINE0": "0 HAIYANG 2D",
    "TLE_LINE1": "1 48621U 21043A   23106.56368318 -.00000010  00000-0  64488-4 0  9999",
    "TLE_LINE2": "2 48621  65.9990 306.7889 0009392 255.2639 104.7387 13.83373536 96464",
    "OBJECT_ID": "2021-043A",
    "OBJECT_NUMBER": "48621",
    "SEMIMAJOR_AXIS": "7330.083",
    "PERIOD": "104.093",
    "APOGEE": "958.832",
    "PERIGEE": "945.063",
    "DECAYED": "0"
  }
]